OBJECT_NAME,OBJECT_ID,EPOCH,MEAN_MOTION,ECCENTRICITY,INCLINATION,RA_OF_ASC_NODE,ARG_OF_PERICENTER,MEAN_ANOMALY,EPHEMERIS_TYPE,CLASSIFICATION_TYPE,NORAD_CAT_ID,ELEMENT_SET_NO,REV_AT_EPOCH,BSTAR,MEAN_MOTION_DOT,MEAN_MOTION_DDOT
COSMOS 2534 (758),2019-030A,2026-07-07T21:13:12.402912,2.13102297,.0013559,64.3703,191.9194,274.9800,262.1964,0,U,44299,999,5536,0,.124E-5,0
BEIDOU-3 IGSO-2 (C39),2019-035A,2026-07-07T19:26:52.772064,1.00260158,.0039633,55.2504,158.6819,216.3902,321.3360,0,U,44337,999,2587,0,-.72E-6,0
GPS BIII-2  (PRN 18),2019-056A,2026-07-07T20:14:48.177024,2.00569949,.0063112,55.6262,330.3229,198.0249,344.7906,0,U,44506,999,5048,0,-.72E-6,0
BEIDOU-3 M24 (C46),2019-061A,2026-07-07T15:31:14.391840,1.86229348,.000858,54.3975,182.0378,359.2255,0.7815,0,U,44542,999,4617,0,.121E-5,0
BEIDOU-3 M23 (C45),2019-061B,2026-07-07T18:47:17.090016,1.86227400,.0005857,54.3961,182.0018,339.4265,23.3222,0,U,44543,999,4618,0,.121E-5,0
EUTELSAT 5 WEST B (EGNOS/PRN 121),2019-067A,2026-07-08T04:11:38.603904,1.00271339,.0003132,0.0650,341.7961,126.6342,235.6075,0,U,44624,999,2464,0,-.27E-6,0
BEIDOU-3 M22 (C44),2019-078A,2026-07-05T08:08:09.837600,1.86227646,.00059141,53.9186,299.1896,49.8831,310.1966,0,U,44793,999,4498,0,-.58E-6,0
BEIDOU-3 M21 (C43),2019-078B,2026-07-08T03:55:41.277216,1.86228045,.0003791,53.8889,299.0507,48.5315,311.5256,0,U,44794,999,4504,0,-.63E-6,0
COSMOS 2544 (759),2019-088A,2026-07-07T04:58:54.388416,2.13103181,.00125753,65.5757,73.0630,256.0344,103.8880,0,U,44850,999,5114,0,-.19E-6,0
BEIDOU-3 M19 (C41),2019-090A,2026-07-08T03:27:30.987360,1.86231659,.0017044,56.5765,62.0989,297.4467,246.9869,0,U,44864,999,4462,0,-.45E-6,0
BEIDOU-3 M20 (C42),2019-090B,2026-07-06T22:17:09.972096,1.86231636,.00149428,56.5768,62.1737,312.1641,226.9103,0,U,44865,999,4458,0,-.42E-6,0
BEIDOU-3 G2 (C60),2020-017A,2026-07-08T03:48:52.500672,1.00270497,.0002364,2.9040,47.6302,54.2846,321.4953,0,U,45344,999,2347,0,-.127E-5,0
COSMOS 2545 (760),2020-018A,2026-07-07T20:55:22.502208,2.13102711,.0009213,64.3418,311.6924,230.0450,129.8870,0,U,45358,999,4910,0,-.52E-6,0
BEIDOU-3 G3 (C61),2020-040A,2026-07-08T02:47:38.889312,1.00268168,.0002037,2.4953,67.4789,333.5581,37.4757,0,U,45807,999,2228,0,-.34E-5,0
GPS BIII-3  (PRN 23),2020-041A,2026-07-06T04:19:38.517024,2.00558250,.00647244,56.6823,28.2076,204.5515,154.8185,0,U,45854,999,4441,0,-.55E-6,0
GALAXY 30 (WAAS/PRN 135),2020-056C,2026-07-08T01:07:47.615232,1.00270654,.00021,0.0173,47.4015,60.4134,70.1440,0,U,46114,999,2150,0,.52E-6,0
COSMOS 2547 (705K),2020-075A,2026-07-08T01:28:31.673280,2.13100176,.0009447,64.6012,191.7788,239.8326,120.1056,0,U,46805,999,4435,0,.125E-5,0
GPS BIII-4  (PRN 14),2020-078A,2026-07-08T04:53:52.068768,2.00564872,.0074358,53.9782,209.9265,207.6144,150.0320,0,U,46826,999,4192,0,.106E-5,0
GPS BIII-5  (PRN 11),2021-054A,2026-07-07T10:49:57.438336,2.00567664,.00261955,55.1638,331.6461,228.4720,132.0146,0,U,48859,999,3716,0,-.72E-6,0
QZS-1R (QZSS/PRN 196),2021-096A,2026-07-07T14:19:35.596128,1.00248309,.0755406,37.5005,79.2823,272.1222,281.4736,0,U,49336,999,1721,0,-.264E-5,0
GSAT0223 (GALILEO 27),2021-116A,2026-07-07T12:43:58.897920,1.70476066,.0002092,57.1541,341.1269,192.1025,172.9175,0,U,49809,999,2853,0,-.72E-6,0
GSAT0224 (GALILEO 28),2021-116B,2026-07-07T08:24:14.312160,1.70476148,.00016312,57.1546,341.1306,175.8676,191.0805,0,U,49810,999,2855,0,-.71E-6,0
COSMOS 2557 (706K),2022-075A,2026-07-07T06:53:27.542976,2.13102498,.00105957,64.2857,313.7776,272.6042,87.2866,0,U,52984,999,3114,0,-.5E-6,0
COSMOS 2559 (707K),2022-130A,2026-07-07T13:49:32.467872,2.13101678,.0012956,64.2580,313.8500,180.1855,179.8260,0,U,54031,999,2912,0,-.51E-6,0
COSMOS 2564 (761),2022-161A,2026-07-06T22:47:57.933312,2.13102000,.00122562,64.7434,192.0556,225.0920,134.8385,0,U,54377,999,2805,0,.118E-5,0
GPS BIII-6  (PRN 28),2023-009A,2026-07-08T03:24:24.843744,2.00570045,.000621,55.1237,147.6955,319.8911,217.8197,0,U,55268,999,2566,0,.71E-6,0
BEIDOU-3 G4 (C62),2023-066A,2026-07-06T07:36:57.282624,1.00266978,.00050564,0.4680,336.2679,178.9368,23.3032,0,U,56564,999,1158,0,-.268E-5,0
NVS-01 (IRNSS-1J),2023-076A,2026-07-08T00:37:42.999168,1.00268489,.0003307,2.1197,243.4223,7.4004,174.1398,0,U,56759,999,1132,0,-.319E-5,0
COSMOS 2569 (703K),2023-114A,2026-07-07T10:21:25.485408,2.13103726,.0009941,65.3135,71.9380,296.3813,63.5792,0,U,57517,999,2269,0,-.21E-6,0
BEIDOU-3 M28 (C50),2023-207A,2026-07-05T00:27:15.772320,1.86229759,.00027082,55.7683,61.7016,358.6416,1.4251,0,U,58654,999,1717,0,-.39E-6,0
BEIDOU-3 M26 (C48),2023-207B,2026-07-06T23:08:31.365024,1.86229712,.00022961,55.7724,61.6226,323.9570,36.0904,0,U,58655,999,1719,0,-.44E-6,0
